{
  "links": {
    "next": "https://api.nasa.gov/neo/rest/v1/neo/browse?page=2&size=5&api_key=DEMO_KEY",
    "prev": "https://api.nasa.gov/neo/rest/v1/neo/browse?page=0&size=5&api_key=DEMO_KEY",
    "self": "https://api.nasa.gov/neo/rest/v1/neo/browse?page=1&size=5&api_key=DEMO_KEY"
  },
  "page": {
    "size": 5,
    "total_elements": 15378,
    "total_pages": 3075,
    "number": 1
  },
  "near_earth_objects": [
    {
      "links": {
        "self": "https://api.nasa.gov/neo/rest/v1/neo/2305090?api_key=DEMO_KEY"
      },
      "neo_reference_id": "2305090",
      "name": "305090 (2007 VQ4)",
      "nasa_jpl_url": "http://ssd.jpl.nasa.gov/sbdb.cgi?sstr=2305090",
      "absolute_magnitude_h": 16.2,
      "estimated_diameter": {
        "kilometers": {
          "estimated_diameter_min": 1.5295193534,
          "estimated_diameter_max": 3.4201092472
        },
        "meters": {
          "estimated_diameter_min": 1529.5193534422,
          "estimated_diameter_max": 3420.1092471982
        },
        "miles": {
          "estimated_diameter_min": 0.9503989702,
          "estimated_diameter_max": 2.125156703
        },
        "feet": {
          "estimated_diameter_min": 5018.1082755472,
          "estimated_diameter_max": 11220.8312225778
        }
      },
      "is_potentially_hazardous_asteroid": false,
      "close_approach_data": [
        {
          "close_approach_date": "2011-03-01",
          "epoch_date_close_approach": 1298966400000,
          "relative_velocity": {
            "kilometers_per_second": "6.5612811118",
            "kilometers_per_hour": "23620.6120023865",
            "miles_per_hour": "14676.9297189274"
          },
          "miss_distance": {
            "astronomical": "1.9877798248",
            "lunar": "773.2463378906",
            "kilometers": "297367648",
            "miles": "184775680"
          },
          "orbiting_body": "Juptr"
        },
        {
          "close_approach_date": "2165-05-08",
          "epoch_date_close_approach": 61646,
          "relative_velocity": {
            "kilometers_per_second": "6.7705752788",
            "kilometers_per_hour": "24374.0710035509",
            "miles_per_hour": "15145.0998410675"
          },
          "miss_distance": {
            "astronomical": "1.9546631819",
            "lunar": "760.3639526367",
            "kilometers": "292413440",
            "miles": "181697296"
          },
          "orbiting_body": "Juptr"
        }
      ],
      "orbital_data": {
        "orbit_id": "127",
        "orbit_determination_date": "2016-02-26 12:44:27",
        "orbit_uncertainty": "0",
        "minimum_orbit_intersection": ".51419",
        "jupiter_tisserand_invariant": "3.065",
        "epoch_osculation": "2457800.5",
        "eccentricity": ".5156729018589202",
        "semi_major_axis": "2.635142151310744",
        "inclination": "26.62421962466886",
        "ascending_node_longitude": "58.76601481755691",
        "orbital_period": "1562.44413738481",
        "perihelion_distance": "1.276270751333574",
        "perihelion_argument": "100.1699763887481",
        "aphelion_distance": "3.994013551287913",
        "perihelion_time": "2457659.522022396336",
        "mean_anomaly": "32.48248735616682",
        "mean_motion": ".2304082375722958",
        "equinox": "J2000"
      }
    },
    {
      "links": {
        "self": "https://api.nasa.gov/neo/rest/v1/neo/2315020?api_key=DEMO_KEY"
      },
      "neo_reference_id": "2315020",
      "name": "315020 (2007 BG49)",
      "nasa_jpl_url": "http://ssd.jpl.nasa.gov/sbdb.cgi?sstr=2315020",
      "absolute_magnitude_h": 18.7,
      "estimated_diameter": {
        "kilometers": {
          "estimated_diameter_min": 0.4836764882,
          "estimated_diameter_max": 1.0815335068
        },
        "meters": {
          "estimated_diameter_min": 483.6764882185,
          "estimated_diameter_max": 1081.533506775
        },
        "miles": {
          "estimated_diameter_min": 0.3005425432,
          "estimated_diameter_max": 0.6720335566
        },
        "feet": {
          "estimated_diameter_min": 1586.8651696069,
          "estimated_diameter_max": 3548.3383903678
        }
      },
      "is_potentially_hazardous_asteroid": false,
      "close_approach_data": [
        {
          "close_approach_date": "1990-05-26",
          "epoch_date_close_approach": 643705200000,
          "relative_velocity": {
            "kilometers_per_second": "9.0514013626",
            "kilometers_per_hour": "32585.0449053534",
            "miles_per_hour": "20247.0797079958"
          },
          "miss_distance": {
            "astronomical": "0.0698240809",
            "lunar": "27.1615657806",
            "kilometers": "10445533",
            "miles": "6490553.5"
          },
          "orbiting_body": "Mars"
        },
        {
          "close_approach_date": "1997-11-29",
          "epoch_date_close_approach": 880790400000,
          "relative_velocity": {
            "kilometers_per_second": "8.0512848001",
            "kilometers_per_hour": "28984.6252803195",
            "miles_per_hour": "18009.9189693185"
          },
          "miss_distance": {
            "astronomical": "0.0306683101",
            "lunar": "11.9299726486",
            "kilometers": "4587914",
            "miles": "2850797.5"
          },
          "orbiting_body": "Mars"
        },
        {
          "close_approach_date": "2005-06-03",
          "epoch_date_close_approach": 1117782000000,
          "relative_velocity": {
            "kilometers_per_second": "7.1648341007",
            "kilometers_per_hour": "25793.4027625679",
            "miles_per_hour": "16027.0173998856"
          },
          "miss_distance": {
            "astronomical": "0.065413108",
            "lunar": "25.4456996918",
            "kilometers": "9785662",
            "miles": "6080528.5"
          },
          "orbiting_body": "Mars"
        },
        {
          "close_approach_date": "2102-06-06",
          "epoch_date_close_approach": 4179020400000,
          "relative_velocity": {
            "kilometers_per_second": "8.0527961359",
            "kilometers_per_hour": "28990.0660892756",
            "miles_per_hour": "18013.2996764168"
          },
          "miss_distance": {
            "astronomical": "0.0915521514",
            "lunar": "35.6137886047",
            "kilometers": "13696007",
            "miles": "8510304"
          },
          "orbiting_body": "Mars"
        }
      ],
      "orbital_data": {
        "orbit_id": "34",
        "orbit_determination_date": "2015-10-28 23:30:40",
        "orbit_uncertainty": "0",
        "minimum_orbit_intersection": ".280852",
        "jupiter_tisserand_invariant": "3.939",
        "epoch_osculation": "2457800.5",
        "eccentricity": ".3209422851924882",
        "semi_major_axis": "1.843732006253498",
        "inclination": "7.894892821457991",
        "ascending_node_longitude": "332.8571415539701",
        "orbital_period": "914.4187428019355",
        "perihelion_distance": "1.252000442883969",
        "perihelion_argument": "281.4923648869116",
        "aphelion_distance": "2.435463569623026",
        "perihelion_time": "2458022.626638097263",
        "mean_anomaly": "272.5503601665179",
        "mean_motion": ".3936927177333421",
        "equinox": "J2000"
      }
    }
  ]
}
